[Satellite]
VERSION=1.1
NAME=DMSP 5D-3 F15 (USA 147)
NICKNAME=DMSP 5D-3 F15 (USA 147)
TLE1=1 25991U 99067A   20157.92780278 -.00000094  00000-0 -24555-4 0  9995
TLE2=2 25991  98.9689 129.2079 0010566 129.1171 291.5263 14.16484475 58798
STATUS=0
